NORAD_CAT_ID,OBJECT_NAME,OBJECT_TYPE,EPOCH,MEAN_MOTION,ECCENTRICITY,INCLINATION,RA_OF_ASC_NODE,ARG_OF_PERICENTER,MEAN_ANOMALY,BSTAR,MEAN_MOTION_DOT,MEAN_MOTION_DDOT,TLE_LINE0,TLE_LINE1,TLE_LINE2,SEMIMAJOR_AXIS,PERIOD,APOGEE,PERIGEE,DECAYED
51992.0,STARLINK-3643,PAYLOAD,2023-07-07 02:11:28,15.08852076,0.0001342,53.217,83.2416,87.8447,272.2699,0.0001116,1.489e-05,0.0,0 STARLINK-3643,1 51992U 22025AN  23188.09130321  .00001489  00000-0  11160-3 0  9992,2 51992  53.2170  83.2416 0001342  87.8447 272.2699 15.08852076 75021,6917.843,95.437,540.637,538.78,0.0
51992.0,STARLINK-3643,PAYLOAD,2023-07-07 11:43:47,15.08844521,0.0001605,53.2151,81.4543,105.1058,255.0112,6.3769e-05,7.27e-06,0.0,0 STARLINK-3643,1 51992U 22025AN  23188.48874771  .00000727  00000-0  63769-4 0  9996,2 51992  53.2151  81.4543 0001605 105.1058 255.0112 15.08844521 75086,6917.867,95.437,540.842,538.621,0.0
51992.0,STARLINK-3643,PAYLOAD,2023-07-07 22:51:30,15.08833753,0.0001537,53.2165,79.3743,105.8559,254.2603,9.4487e-05,1.216e-05,0.0,0 STARLINK-3643,1 51992U 22025AN  23188.95243597  .00001216  00000-0  94487-4 0  9999,2 51992  53.2165  79.3743 0001537 105.8559 254.2603 15.08833753 75155,6917.899,95.438,540.828,538.701,0.0
51992.0,STARLINK-3643,PAYLOAD,2023-07-09 11:25:22,15.08835869,0.0001187,53.2166,72.5356,93.4163,266.6965,4.5488e-05,4.36e-06,0.0,0 STARLINK-3643,1 51992U 22025AN  23190.47595491  .00000436  00000-0  45488-4 0  9992,2 51992  53.2166  72.5356 0001187  93.4163 266.6965 15.08835869 75388,6917.893,95.438,540.579,538.937,0.0
51992.0,STARLINK-3643,PAYLOAD,2023-07-10 17:37:42,15.08836565,0.0001247,53.2169,66.8863,90.3496,269.7639,0.00010394,1.367e-05,0.0,0 STARLINK-3643,1 51992U 22025AN  23191.73451449  .00001367  00000-0  10394-3 0  9997,2 51992  53.2169  66.8863 0001247  90.3496 269.7639 15.08836565 75579,6917.891,95.438,540.619,538.893,0.0
51992.0,STARLINK-3643,PAYLOAD,2023-07-11 01:34:37,15.08848641,0.0001251,53.2171,65.3986,91.5398,268.5738,6.0369e-05,6.73e-06,0.0,0 STARLINK-3643,1 51992U 22025AN  23192.06570759  .00000673  00000-0  60369-4 0  9997,2 51992  53.2171  65.3986 0001251  91.5398 268.5738 15.08848641 75622,6917.854,95.437,540.584,538.854,0.0
51992.0,STARLINK-3643,PAYLOAD,2023-07-11 22:14:38,15.08836574,0.0001172,53.2173,61.5331,94.6018,265.5107,6.32e-05,7.18e-06,0.0,0 STARLINK-3643,1 51992U 22025AN  23192.92683568  .00000718  00000-0  63200-4 0  9992,2 51992  53.2173  61.5331 0001172  94.6018 265.5107 15.08836574 75754,6917.891,95.438,540.567,538.945,0.0
51992.0,STARLINK-3643,PAYLOAD,2023-07-13 07:37:44,15.088401,0.0001107,53.217,55.2902,92.3169,267.795,-6.9729e-05,-1.397e-05,0.0,0 STARLINK-3643,1 51992U 22025AN  23194.31787861 -.00001397  00000-0 -69729-4 0  9996,2 51992  53.2170  55.2902 0001107  92.3169 267.7950 15.08840100 75968,6917.88,95.438,540.511,538.979,0.0
51992.0,STARLINK-3643,PAYLOAD,2023-07-14 23:22:22,15.08845293,0.0001152,53.2182,47.8522,96.5265,263.5858,0.00014816,2.071e-05,0.0,0 STARLINK-3643,1 51992U 22025AN  23195.97387491  .00002071  00000-0  14816-3 0  9998,2 51992  53.2182  47.8522 0001152  96.5265 263.5858 15.08845293 76217,6917.864,95.437,540.526,538.932,0.0
51992.0,STARLINK-3643,PAYLOAD,2023-07-15 07:19:19,15.08840775,0.0001238,53.2188,46.3685,81.2864,278.8268,2.4322e-05,9.9e-07,0.0,0 STARLINK-3643,1 51992U 22025AN  23196.30508202  .00000099  00000-0  24322-4 0  9993,2 51992  53.2188  46.3685 0001238  81.2864 278.8268 15.08840775 76267,6917.878,95.438,540.599,538.887,0.0
51992.0,STARLINK-3643,PAYLOAD,2023-07-15 16:51:38,15.08823655,7.36e-05,53.219,44.5804,90.1618,269.9459,0.00017456,2.49e-05,0.0,0 STARLINK-3643,1 51992U 22025AN  23196.70252919  .00002490  00000-0  17456-3 0  9994,2 51992  53.2190  44.5804 0000736  90.1618 269.9459 15.08823655 76329,6917.93,95.439,540.305,539.286,0.0
51992.0,STARLINK-3643,PAYLOAD,2023-07-15 21:37:47,15.0883934,0.000108,53.2181,43.6896,97.8481,262.2634,4.7076e-05,4.61e-06,0.0,0 STARLINK-3643,1 51992U 22025AN  23196.90124424  .00000461  00000-0  47076-4 0  9993,2 51992  53.2181  43.6896 0001080  97.8481 262.2634 15.08839340 76357,6917.882,95.438,540.495,539.0,0.0
51992.0,STARLINK-3643,PAYLOAD,2023-07-17 16:33:11,15.08845211,0.0001166,53.2176,35.6624,82.7609,277.3515,4.0448e-05,3.56e-06,0.0,0 STARLINK-3643,1 51992U 22025AN  23198.68972003  .00000356  00000-0  40448-4 0  9993,2 51992  53.2176  35.6624 0001166  82.7609 277.3515 15.08845211 76620,6917.864,95.437,540.536,538.923,0.0
51992.0,STARLINK-3643,PAYLOAD,2023-07-17 19:43:58,15.0883448,0.0001069,53.2177,35.0672,90.4288,269.6826,0.0002816,4.196e-05,0.0,0 STARLINK-3643,1 51992U 22025AN  23198.82220235  .00004196  00000-0  28160-3 0  9994,2 51992  53.2177  35.0672 0001069  90.4288 269.6826 15.08834480 76646,6917.897,95.438,540.502,539.023,0.0
51992.0,STARLINK-3643,PAYLOAD,2023-07-18 22:45:31,15.088412,0.0001068,53.2177,30.0115,97.1275,262.9839,1.979e-05,2.7e-07,0.0,0 STARLINK-3643,1 51992U 22025AN  23199.94828248  .00000027  00000-0  19790-4 0  9995,2 51992  53.2177  30.0115 0001068  97.1275 262.9839 15.08841200 76819,6917.877,95.437,540.481,539.003,0.0
51992.0,STARLINK-3643,PAYLOAD,2023-07-19 17:50:10,15.08833099,0.0001118,53.218,26.4425,92.0445,268.0675,-3.292e-05,-8.12e-06,0.0,0 STARLINK-3643,1 51992U 22025AN  23200.74317197 -.00000812  00000-0 -32920-4 0  9996,2 51992  53.2180  26.4425 0001118  92.0445 268.0675 15.08833099 76930,6917.901,95.438,540.54,538.993,0.0
51992.0,STARLINK-3643,PAYLOAD,2023-07-20 14:30:10,15.08837353,0.0001118,53.2183,22.5764,86.6989,273.4131,6.2304e-05,7.04e-06,0.0,0 STARLINK-3643,1 51992U 22025AN  23201.60428920  .00000704  00000-0  62304-4 0  9996,2 51992  53.2183  22.5764 0001118  86.6989 273.4131 15.08837353 77067,6917.888,95.438,540.527,538.98,0.0
51992.0,STARLINK-3643,PAYLOAD,2023-07-24 10:42:32,15.08841971,9.88e-05,53.2191,5.3289,96.3287,263.7818,1.6326e-05,-2.8e-07,0.0,0 STARLINK-3643,1 51992U 22025AN  23205.44620893 -.00000028  00000-0  16326-4 0  9998,2 51992  53.2191   5.3289 0000988  96.3287 263.7818 15.08841971 76097,6917.874,95.437,540.423,539.056,0.0
51992.0,STARLINK-3643,PAYLOAD,2023-07-25 10:33:19,15.08836784,9.97e-05,53.2181,0.8703,96.0197,264.0909,-4.258e-06,-3.55e-06,0.0,0 STARLINK-3643,1 51992U 22025AN  23206.43981185 -.00000355  00000-0 -42580-5 0  9998,2 51992  53.2181   0.8703 0000997  96.0197 264.0909 15.08836784 76242,6917.89,95.438,540.445,539.066,0.0
51992.0,STARLINK-3643,PAYLOAD,2023-07-26 11:59:29,15.0886614,0.0001091,53.218,356.1123,105.0463,255.065,-0.00029576,-4.995e-05,0.0,0 STARLINK-3643,1 51992U 22025AN  23207.49964591 -.00004995  00000-0 -29576-3 0  9999,2 51992  53.2180 356.1123 0001091 105.0463 255.0650 15.08866140 76407,6917.8,95.436,540.42,538.911,0.0
51992.0,STARLINK-3643,PAYLOAD,2023-07-27 02:17:57,15.08838593,0.0001011,53.2181,353.4362,99.5082,260.6024,8.0595e-05,9.95e-06,0.0,0 STARLINK-3643,1 51992U 22025AN  23208.09580946  .00000995  00000-0  80595-4 0  9997,2 51992  53.2181 353.4362 0001011  99.5082 260.6024 15.08838593 78049,6917.885,95.438,540.449,539.05,0.0
51992.0,STARLINK-3643,PAYLOAD,2023-07-27 13:25:40,15.08835099,0.0001041,53.2181,351.3556,88.5068,271.6044,1.0305e-05,-1.24e-06,0.0,0 STARLINK-3643,1 51992U 22025AN  23208.55949505 -.00000124  00000-0  10305-4 0  9995,2 51992  53.2181 351.3556 0001041  88.5068 271.6044 15.08835099 76563,6917.895,95.438,540.481,539.04,0.0
51992.0,STARLINK-3643,PAYLOAD,2023-07-27 16:36:26,15.08840201,9.47e-05,53.2182,350.7608,87.1505,272.9595,5.4198e-05,5.75e-06,0.0,0 STARLINK-3643,1 51992U 22025AN  23208.69197063  .00000575  00000-0  54198-4 0  9991,2 51992  53.2182 350.7608 0000947  87.1505 272.9595 15.08840201 76588,6917.88,95.438,540.4,539.09,0.0
51992.0,STARLINK-3643,PAYLOAD,2023-07-28 08:30:18,15.08830822,9.3e-05,53.2183,347.7884,83.7791,276.3307,1.4845e-05,-5.1e-07,0.0,0 STARLINK-3643,1 51992U 22025AN  23209.35437989 -.00000051  00000-0  14845-4 0  9994,2 51992  53.2183 347.7884 0000930  83.7791 276.3307 15.08830822 78233,6917.908,95.438,540.417,539.13,0.0
51992.0,STARLINK-3643,PAYLOAD,2023-07-28 11:41:04,15.08830779,9.62e-05,53.2181,347.1938,84.9488,275.1614,-2.7217e-05,-7.21e-06,0.0,0 STARLINK-3643,1 51992U 22025AN  23209.48686184 -.00000721  00000-0 -27217-4 0  9993,2 51992  53.2181 347.1938 0000962  84.9488 275.1614 15.08830779 76705,6917.909,95.438,540.439,539.108,0.0
51992.0,STARLINK-3643,PAYLOAD,2023-07-29 01:59:32,15.08845606,9.05e-05,53.2172,344.5178,93.6868,266.4227,-1.5344e-05,-5.32e-06,0.0,0 STARLINK-3643,1 51992U 22025AN  23210.08301116 -.00000532  00000-0 -15344-4 0  9998,2 51992  53.2172 344.5178 0000905  93.6868 266.4227 15.08845606 78348,6917.863,95.437,540.354,539.102,0.0
51992.0,STARLINK-3643,PAYLOAD,2023-07-30 08:11:52,15.08828946,6.47e-05,53.2181,338.8681,72.0883,288.018,5.3915e-05,5.7e-06,0.0,0 STARLINK-3643,1 51992U 22025AN  23211.34158271  .00000570  00000-0  53915-4 0  9996,2 51992  53.2181 338.8681 0000647  72.0883 288.0180 15.08828946 78531,6917.914,95.438,540.227,539.332,0.0
51992.0,STARLINK-3643,PAYLOAD,2023-07-30 16:08:47,15.08841538,8.68e-05,53.2181,337.3805,109.8156,250.293,8.6242e-05,1.085e-05,0.0,0 STARLINK-3643,1 51992U 22025AN  23211.67277495  .00001085  00000-0  86242-4 0  9993,2 51992  53.2181 337.3805 0000868 109.8156 250.2930 15.08841538 78581,6917.876,95.437,540.341,539.14,0.0
51992.0,STARLINK-3643,PAYLOAD,2023-07-31 17:34:57,15.08852726,9.1e-05,53.2184,332.6214,105.8936,254.2156,6.7464e-05,7.86e-06,0.0,0 STARLINK-3643,1 51992U 22025AN  23212.73260752  .00000786  00000-0  67464-4 0  9991,2 51992  53.2184 332.6214 0000910 105.8936 254.2156 15.08852726 78749,6917.841,95.437,540.336,539.077,0.0
51992.0,STARLINK-3643,PAYLOAD,2023-08-01 11:04:12,15.08834109,8.3e-05,53.2183,329.3473,131.4332,228.6732,0.00013687,1.891e-05,0.0,0 STARLINK-3643,1 51992U 22025AN  23213.46125609  .00001891  00000-0  13687-3 0  9998,2 51992  53.2183 329.3473 0000830 131.4332 228.6732 15.08834109 78856,6917.898,95.438,540.338,539.189,0.0
